{"type": "FeatureCollection", "features": [ {"type": "Feature", "properties": {"norad_id": 37280, "name": "COSMOS 2251 DEB", "group": "cosmos-2251-debris", "lat": -12.304169522827374, "lon": -116.00176224760013, "alt_km": 737.2296415630253, "timestamp": "2025-12-10T20:49:52.950219+00:00", "meta": {"OBJECT_NAME": "COSMOS 2251 DEB", "OBJECT_ID": "1993-036BHU", "EPOCH": "2025-12-07T22:33:59.390208", "MEAN_MOTION": 14.19261757, "ECCENTRICITY": 0.01314572, "INCLINATION": 74.0315, "RA_OF_ASC_NODE": 65.6486, "ARG_OF_PERICENTER": 195.2525, "MEAN_ANOMALY": 164.4641, "EPHEMERIS_TYPE": 0, "CLASSIFICATION_TYPE": "U", "NORAD_CAT_ID": 37280, "ELEMENT_SET_NO": 999, "REV_AT_EPOCH": 57255, "BSTAR": 0.0024447431, "MEAN_MOTION_DOT": 5.567e-05, "MEAN_MOTION_DDOT": 0}, "tle": {"line1": "1 37280U 93036BHU 25341.94027072  .00005567  00000+0  24447-2 0  9992", "line2": "2 37280  74.0315  65.6486 0131457 195.2525 164.4641 14.19261757572550"}}, "geometry": {"type": "Point", "coordinates": [-116.00176224760013, -12.304169522827374]}}, {"type": "Feature", "properties": {"norad_id": 37284, "name": "COSMOS 2251 DEB", "group": "cosmos-2251-debris", "lat": -52.11804592801717, "lon": 1.6671857496755984, "alt_km": 829.068864656213, "timestamp": "2025-12-10T20:49:52.950229+00:00", "meta": {"OBJECT_NAME": "COSMOS 2251 DEB", "OBJECT_ID": "1993-036BHY", "EPOCH": "2025-12-05T19:06:47.225088", "MEAN_MOTION": 14.12657303, "ECCENTRICITY": 0.01604408, "INCLINATION": 74.0121, "RA_OF_ASC_NODE": 169.0185, "ARG_OF_PERICENTER": 322.3384, "MEAN_ANOMALY": 52.3924, "EPHEMERIS_TYPE": 0, "CLASSIFICATION_TYPE": "U", "NORAD_CAT_ID": 37284, "ELEMENT_SET_NO": 999, "REV_AT_EPOCH": 59077, "BSTAR": 0.001984473, "MEAN_MOTION_DOT": 4.13e-05, "MEAN_MOTION_DDOT": 0}, "tle": {"line1": "1 37284U 93036BHY 25339.79637992  .00004130  00000+0  19845-2 0  9995", "line2": "2 37284  74.0121 169.0185 0160440 322.3384  52.3924 14.12657303590776"}}, "geometry": {"type": "Point", "coordinates": [1.6671857496755984, -52.11804592801717]}}, {"type": "Feature", "properties": {"norad_id": 37292, "name": "COSMOS 2251 DEB", "group": "cosmos-2251-debris", "lat": 58.30941148716641, "lon": 80.45161307725758, "alt_km": 724.5199934190096, "timestamp": "2025-12-10T20:49:52.950239+00:00", "meta": {"OBJECT_NAME": "COSMOS 2251 DEB", "OBJECT_ID": "1993-036BJG", "EPOCH": "2025-12-02T14:04:30.366912", "MEAN_MOTION": 14.03226454, "ECCENTRICITY": 0.02102512, "INCLINATION": 74.129, "RA_OF_ASC_NODE": 67.3453, "ARG_OF_PERICENTER": 73.1105, "MEAN_ANOMALY": 289.2966, "EPHEMERIS_TYPE": 0, "CLASSIFICATION_TYPE": "U", "NORAD_CAT_ID": 37292, "ELEMENT_SET_NO": 999, "REV_AT_EPOCH": 59706, "BSTAR": 0.0022453288, "MEAN_MOTION_DOT": 4.236e-05, "MEAN_MOTION_DDOT": 0}, "tle": {"line1": "1 37292U 93036BJG 25336.58646258  .00004236  00000+0  22453-2 0  9999", "line2": "2 37292  74.1290  67.3453 0210251  73.1105 289.2966 14.03226454597064"}}, "geometry": {"type": "Point", "coordinates": [80.45161307725758, 58.30941148716641]}}, {"type": "Feature", "properties": {"norad_id": 37295, "name": "COSMOS 2251 DEB", "group": "cosmos-2251-debris", "lat": -71.32143909979877, "lon": -132.80365417182722, "alt_km": 714.0588798503031, "timestamp": "2025-12-10T20:49:52.950248+00:00", "meta": {"OBJECT_NAME": "COSMOS 2251 DEB", "OBJECT_ID": "1993-036BJK", "EPOCH": "2025-12-10T06:27:05.450112", "MEAN_MOTION": 14.65213033, "ECCENTRICITY": 0.0043773, "INCLINATION": 74.0068, "RA_OF_ASC_NODE": 286.3868, "ARG_OF_PERICENTER": 106.4238, "MEAN_ANOMALY": 254.1748, "EPHEMERIS_TYPE": 0, "CLASSIFICATION_TYPE": "U", "NORAD_CAT_ID": 37295, "ELEMENT_SET_NO": 999, "REV_AT_EPOCH": 82268, "BSTAR": 0.00088834, "MEAN_MOTION_DOT": 4.823e-05, "MEAN_MOTION_DDOT": 0}, "tle": {"line1": "1 37295U 93036BJK 25344.26881308  .00004823  00000+0  88834-3 0  9991", "line2": "2 37295  74.0068 286.3868 0043773 106.4238 254.1748 14.65213033822687"}}, "geometry": {"type": "Point", "coordinates": [-132.80365417182722, -71.32143909979877]}}, {"type": "Feature", "properties": {"norad_id": 37305, "name": "COSMOS 2251 DEB", "group": "cosmos-2251-debris", "lat": -69.69996376062889, "lon": 165.4601825874194, "alt_km": 742.3357803374338, "timestamp": "2025-12-10T20:49:52.950258+00:00", "meta": {"OBJECT_NAME": "COSMOS 2251 DEB", "OBJECT_ID": "1993-036BJV", "EPOCH": "2025-12-10T14:37:05.458080", "MEAN_MOTION": 14.36123744, "ECCENTRICITY": 0.00502796, "INCLINATION": 73.8703, "RA_OF_ASC_NODE": 294.4681, "ARG_OF_PERICENTER": 255.1941, "MEAN_ANOMALY": 104.3638, "EPHEMERIS_TYPE": 0, "CLASSIFICATION_TYPE": "U", "NORAD_CAT_ID": 37305, "ELEMENT_SET_NO": 999, "REV_AT_EPOCH": 66836, "BSTAR": 0.0011247022, "MEAN_MOTION_DOT": 3.297e-05, "MEAN_MOTION_DDOT": 0}, "tle": {"line1": "1 37305U 93036BJV 25344.60909095  .00003297  00000+0  11247-2 0  9992", "line2": "2 37305  73.8703 294.4681 0050279 255.1941 104.3638 14.36123744668361"}}, "geometry": {"type": "Point", "coordinates": [165.4601825874194, -69.69996376062889]}}, {"type": "Feature", "properties": {"norad_id": 37312, "name": "COSMOS 2251 DEB", "group": "cosmos-2251-debris", "lat": -49.82676448281939, "lon": 47.501437723985, "alt_km": 742.2293102002777, "timestamp": "2025-12-10T20:49:52.950268+00:00", "meta": {"OBJECT_NAME": "COSMOS 2251 DEB", "OBJECT_ID": "1993-036BKC", "EPOCH": "2025-12-09T00:35:23.995392", "MEAN_MOTION": 14.46107555, "ECCENTRICITY": 0.00182852, "INCLINATION": 74.0311, "RA_OF_ASC_NODE": 211.115, "ARG_OF_PERICENTER": 314.7028, "MEAN_ANOMALY": 45.264, "EPHEMERIS_TYPE": 0, "CLASSIFICATION_TYPE": "U", "NORAD_CAT_ID": 37312, "ELEMENT_SET_NO": 999, "REV_AT_EPOCH": 86110, "BSTAR": 0.00057614872, "MEAN_MOTION_DOT": 2.035e-05, "MEAN_MOTION_DDOT": 0}, "tle": {"line1": "1 37312U 93036BKC 25343.02458328  .00002035  00000+0  57615-3 0  9992", "line2": "2 37312  74.0311 211.1150 0018285 314.7028  45.2640 14.46107555861109"}}, "geometry": {"type": "Point", "coordinates": [47.501437723985, -49.82676448281939]}}, {"type": "Feature", "properties": {"norad_id": 37316, "name": "COSMOS 2251 DEB", "group": "cosmos-2251-debris", "lat": 67.4422129213946, "lon": 161.22567084880183, "alt_km": 557.3793603561808, "timestamp": "2025-12-10T20:49:52.950278+00:00", "meta": {"OBJECT_NAME": "COSMOS 2251 DEB", "OBJECT_ID": "1993-036BKG", "EPOCH": "2025-12-10T02:41:09.662496", "MEAN_MOTION": 14.9431335, "ECCENTRICITY": 0.00294662, "INCLINATION": 74.0196, "RA_OF_ASC_NODE": 26.3697, "ARG_OF_PERICENTER": 95.7328, "MEAN_ANOMALY": 264.7217, "EPHEMERIS_TYPE": 0, "CLASSIFICATION_TYPE": "U", "NORAD_CAT_ID": 37316, "ELEMENT_SET_NO": 999, "REV_AT_EPOCH": 86104, "BSTAR": 0.0028761908, "MEAN_MOTION_DOT": 0.0003128, "MEAN_MOTION_DDOT": 0}, "tle": {"line1": "1 37316U 93036BKG 25344.11191739  .00031280  00000+0  28762-2 0  9991", "line2": "2 37316  74.0196  26.3697 0029466  95.7328 264.7217 14.94313350861044"}}, "geometry": {"type": "Point", "coordinates": [161.22567084880183, 67.4422129213946]}}, {"type": "Feature", "properties": {"norad_id": 37320, "name": "COSMOS 2251 DEB", "group": "cosmos-2251-debris", "lat": -13.002549763681607, "lon": -141.94464450392096, "alt_km": 611.3162126323259, "timestamp": "2025-12-10T20:49:52.950288+00:00", "meta": {"OBJECT_NAME": "COSMOS 2251 DEB", "OBJECT_ID": "1993-036BKL", "EPOCH": "2025-12-07T10:04:58.850112", "MEAN_MOTION": 14.78679149, "ECCENTRICITY": 0.00469494, "INCLINATION": 74.0461, "RA_OF_ASC_NODE": 228.6135, "ARG_OF_PERICENTER": 316.7124, "MEAN_ANOMALY": 43.0365, "EPHEMERIS_TYPE": 0, "CLASSIFICATION_TYPE": "U", "NORAD_CAT_ID": 37320, "ELEMENT_SET_NO": 999, "REV_AT_EPOCH": 66068, "BSTAR": 0.0013976753, "MEAN_MOTION_DOT": 0.00010421, "MEAN_MOTION_DDOT": 0}, "tle": {"line1": "1 37320U 93036BKL 25341.42012558  .00010421  00000+0  13977-2 0  9994", "line2": "2 37320  74.0461 228.6135 0046949 316.7124  43.0365 14.78679149660685"}}, "geometry": {"type": "Point", "coordinates": [-141.94464450392096, -13.002549763681607]}}, {"type": "Feature", "properties": {"norad_id": 37326, "name": "COSMOS 2251 DEB", "group": "cosmos-2251-debris", "lat": -49.445607123573325, "lon": -41.28015500539123, "alt_km": 731.0611975522497, "timestamp": "2025-12-10T20:49:52.950298+00:00", "meta": {"OBJECT_NAME": "COSMOS 2251 DEB", "OBJECT_ID": "1993-036BKS", "EPOCH": "2025-12-10T07:55:46.181568", "MEAN_MOTION": 14.61555954, "ECCENTRICITY": 0.00548149, "INCLINATION": 74.0262, "RA_OF_ASC_NODE": 339.3048, "ARG_OF_PERICENTER": 109.0704, "MEAN_ANOMALY": 251.641, "EPHEMERIS_TYPE": 0, "CLASSIFICATION_TYPE": "U", "NORAD_CAT_ID": 37326, "ELEMENT_SET_NO": 999, "REV_AT_EPOCH": 85448, "BSTAR": 0.00074359922, "MEAN_MOTION_DOT": 3.743e-05, "MEAN_MOTION_DDOT": 0}, "tle": {"line1": "1 37326U 93036BKS 25344.33039562  .00003743  00000+0  74360-3 0  9990", "line2": "2 37326  74.0262 339.3048 0054814 109.0704 251.6410 14.61555954854480"}}, "geometry": {"type": "Point", "coordinates": [-41.28015500539123, -49.445607123573325]}}, {"type": "Feature", "properties": {"norad_id": 37330, "name": "COSMOS 2251 DEB", "group": "cosmos-2251-debris", "lat": -39.64546169322309, "lon": -75.07655781654614, "alt_km": 740.6884589268047, "timestamp": "2025-12-10T20:49:52.950308+00:00", "meta": {"OBJECT_NAME": "COSMOS 2251 DEB", "OBJECT_ID": "1993-036BKW", "EPOCH": "2025-12-10T14:26:36.263904", "MEAN_MOTION": 14.59529654, "ECCENTRICITY": 0.00570836, "INCLINATION": 74.0184, "RA_OF_ASC_NODE": 299.1685, "ARG_OF_PERICENTER": 148.3103, "MEAN_ANOMALY": 212.152, "EPHEMERIS_TYPE": 0, "CLASSIFICATION_TYPE": "U", "NORAD_CAT_ID": 37330, "ELEMENT_SET_NO": 999, "REV_AT_EPOCH": 86337, "BSTAR": 0.00050236015, "MEAN_MOTION_DOT": 2.411e-05, "MEAN_MOTION_DDOT": 0}, "tle": {"line1": "1 37330U 93036BKW 25344.60180861  .00002411  00000+0  50236-3 0  9991", "line2": "2 37330  74.0184 299.1685 0057083 148.3103 212.1520 14.59529654863375"}}, "geometry": {"type": "Point", "coordinates": [-75.07655781654614, -39.64546169322309]}}]}